ORBCOMM-X               
1 21576U 91050C   25311.18727843  .00000468  00000+0  15148-3 0  9997
2 21576  98.3275  14.7619 0004760 109.6138 250.5567 14.43388809802749
ORBCOMM FM01            
1 23545U 95017A   25310.76790668  .00012456  00000+0  12258-2 0  9998
2 23545  69.9629  78.1089 0000419 108.4526 251.6676 14.92236679633762
ORBCOMM FM02            
1 23546U 95017B   25310.81082149  .00016686  00000+0  15837-2 0  9998
2 23546  69.9626  96.8286 0002048 107.0405 253.0976 14.93579749633439
ORBCOMM FM08            
1 25112U 97084A   25310.70673762  .00003047  00000+0  87983-3 0  9999
2 25112  45.0141  43.4502 0008025 245.2195 114.7822 14.46379461462001
ORBCOMM FM10            
1 25113U 97084B   25310.64052845  .00002463  00000+0  72264-3 0  9993
2 25113  45.0153  46.4066 0006578 218.1806 141.8580 14.46144799637136
ORBCOMM FM11            
1 25114U 97084C   25310.67011124  .00002688  00000+0  78916-3 0  9991
2 25114  45.0141  47.1603 0007368 218.8948 141.1374 14.45884297462099
ORBCOMM FM12            
1 25115U 97084D   25310.63063820  .00002660  00000+0  78080-3 0  9990
2 25115  45.0145  47.0860 0006447 216.8299 143.2110 14.45906408461888
ORBCOMM FM09            
1 25116U 97084E   25310.67598636  .00002588  00000+0  76317-3 0  9993
2 25116  45.0152  47.9517 0007552 208.2188 151.8255 14.45762141462098
